NORAD_CAT_ID,OBJECT_NAME,OBJECT_TYPE,EPOCH,MEAN_MOTION,ECCENTRICITY,INCLINATION,RA_OF_ASC_NODE,ARG_OF_PERICENTER,MEAN_ANOMALY,BSTAR,MEAN_MOTION_DOT,MEAN_MOTION_DDOT,TLE_LINE0,TLE_LINE1,TLE_LINE2,SEMIMAJOR_AXIS,PERIOD,APOGEE,PERIGEE,DECAYED
55948.0,STARLINK-5900,PAYLOAD,2024-07-09 12:46:51,14.98328441,0.0003065,70.0008,357.9784,271.3425,88.7383,3.5008e-05,3.25e-06,0.0,0 STARLINK-5900,1 55948U 23037AL  24191.53254528  .00000325  00000-0  35008-4 0  9997,2 55948  70.0008 357.9784 0003065 271.3425  88.7383 14.98328441 73718,6950.198,96.107,574.193,569.932,0.0
55948.0,STARLINK-5900,PAYLOAD,2024-07-09 14:22:59,14.9832847,0.0003069,70.0008,357.81,271.3147,88.766,3.4919e-05,3.24e-06,0.0,0 STARLINK-5900,1 55948U 23037AL  24191.59930530  .00000324  00000-0  34919-4 0  9996,2 55948  70.0008 357.8100 0003069 271.3147  88.7660 14.98328470 73387,6950.198,96.107,574.196,569.93,0.0
55948.0,STARLINK-5900,PAYLOAD,2024-07-09 20:47:31,14.98332504,0.0003078,70.0009,357.1366,271.2664,88.8143,4.1734e-05,4.05e-06,0.0,0 STARLINK-5900,1 55948U 23037AL  24191.86634246  .00000405  00000-0  41734-4 0  9994,2 55948  70.0009 357.1366 0003078 271.2664  88.8143 14.98332504 73423,6950.185,96.107,574.189,569.911,0.0
55948.0,STARLINK-5900,PAYLOAD,2024-07-10 11:12:44,14.98325731,0.0003077,70.0008,355.6214,270.7735,89.3072,2.1227e-05,1.6e-06,0.0,0 STARLINK-5900,1 55948U 23037AL  24192.46718740  .00000160  00000-0  21227-4 0  9996,2 55948  70.0008 355.6214 0003077 270.7735  89.3072 14.98325731 73510,6950.206,96.107,574.21,569.933,0.0
55948.0,STARLINK-5900,PAYLOAD,2024-07-10 20:49:33,14.98330902,0.000309,70.0008,354.6112,270.268,89.8125,1.7423e-05,1.15e-06,0.0,0 STARLINK-5900,1 55948U 23037AL  24192.86774446  .00000115  00000-0  17423-4 0  9998,2 55948  70.0008 354.6112 0003090 270.2680  89.8125 14.98330902 73919,6950.19,96.107,574.203,569.907,0.0
55948.0,STARLINK-5900,PAYLOAD,2024-07-11 14:27:01,14.9833271,0.0003026,70.0012,352.7595,270.7729,89.3084,4.0907e-05,3.95e-06,0.0,0 STARLINK-5900,1 55948U 23037AL  24193.60210210  .00000395  00000-0  40907-4 0  9998,2 55948  70.0012 352.7595 0003026 270.7729  89.3084 14.98332710 73688,6950.185,96.107,574.153,569.946,0.0
55948.0,STARLINK-5900,PAYLOAD,2024-07-12 03:16:06,14.98331801,0.0002963,70.0014,351.4128,270.6527,89.4292,2.6058e-05,2.18e-06,0.0,0 STARLINK-5900,1 55948U 23037AL  24194.13618169  .00000218  00000-0  26058-4 0  9997,2 55948  70.0014 351.4128 0002963 270.6527  89.4292 14.98331801 74102,6950.187,96.107,574.112,569.993,0.0
55948.0,STARLINK-5900,PAYLOAD,2024-07-12 14:29:02,14.98329137,0.0002953,70.0012,350.2347,270.2262,89.8558,3.7413e-06,-4.8e-07,0.0,0 STARLINK-5900,1 55948U 23037AL  24194.60350400 -.00000048  00000-0  37413-5 0  9990,2 55948  70.0012 350.2347 0002953 270.2262  89.8558 14.98329137 73838,6950.196,96.107,574.113,570.008,0.0
55948.0,STARLINK-5900,PAYLOAD,2024-07-12 20:53:34,14.98332561,0.0002925,70.0015,349.5615,270.5495,89.5329,4.072e-05,3.93e-06,0.0,0 STARLINK-5900,1 55948U 23037AL  24194.87054063  .00000393  00000-0  40720-4 0  9991,2 55948  70.0015 349.5615 0002925 270.5495  89.5329 14.98332561 73872,6950.185,96.107,574.083,570.017,0.0
55948.0,STARLINK-5900,PAYLOAD,2024-07-13 03:18:07,14.98328845,0.0002899,70.0016,348.888,271.4417,88.641,1.2685e-05,5.8e-07,0.0,0 STARLINK-5900,1 55948U 23037AL  24195.13758362  .00000058  00000-0  12685-4 0  9991,2 55948  70.0016 348.8880 0002899 271.4417  88.6410 14.98328845 74257,6950.196,96.107,574.076,570.047,0.0
55948.0,STARLINK-5900,PAYLOAD,2024-07-13 14:31:03,14.98329962,0.0002805,70.0019,347.7101,270.7098,89.374,-4.0634e-05,-5.78e-06,0.0,0 STARLINK-5900,1 55948U 23037AL  24195.60490443 -.00000578  00000-0 -40634-4 0  9990,2 55948  70.0019 347.7101 0002805 270.7098  89.3740 14.98329962 73982,6950.193,96.107,574.008,570.108,0.0
55948.0,STARLINK-5900,PAYLOAD,2024-07-13 19:19:27,14.98329987,0.0002856,70.0019,347.2056,267.3513,92.732,-4.6429e-05,-6.47e-06,0.0,0 STARLINK-5900,1 55948U 23037AL  24195.80518442 -.00000647  00000-0 -46429-4 0  9997,2 55948  70.0019 347.2056 0002856 267.3513  92.7320 14.98329987 74010,6950.193,96.107,574.043,570.073,0.0
55948.0,STARLINK-5900,PAYLOAD,2024-07-14 03:20:07,14.98338116,0.000296,70.0021,346.3648,270.2781,89.8039,-0.00013034,-1.648e-05,0.0,0 STARLINK-5900,1 55948U 23037AL  24196.13898086 -.00001648  00000-0 -13034-3 0  9996,2 55948  70.0021 346.3648 0002960 270.2781  89.8039 14.98338116 74407,6950.168,96.106,574.09,569.976,0.0
55948.0,STARLINK-5900,PAYLOAD,2024-07-14 14:33:04,14.98330063,0.0002961,70.0019,345.1865,269.6531,90.4289,3.0364e-05,2.69e-06,0.0,0 STARLINK-5900,1 55948U 23037AL  24196.60630216  .00000269  00000-0  30364-4 0  9999,2 55948  70.0019 345.1865 0002961 269.6531  90.4289 14.98330063 74136,6950.193,96.107,574.116,570.0,0.0
55948.0,STARLINK-5900,PAYLOAD,2024-07-14 19:21:28,14.98334896,0.0002972,70.0019,344.6816,269.5102,90.5716,5.6881e-05,5.86e-06,0.0,0 STARLINK-5900,1 55948U 23037AL  24196.80657802  .00000586  00000-0  56881-4 0  9995,2 55948  70.0019 344.6816 0002972 269.5102  90.5716 14.98334896 74168,6950.178,96.107,574.108,569.977,0.0
55948.0,STARLINK-5900,PAYLOAD,2024-07-15 03:22:09,14.98328207,0.0002953,70.0022,343.84,270.1953,89.8868,2.8309e-06,-5.9e-07,0.0,0 STARLINK-5900,1 55948U 23037AL  24197.14038350 -.00000059  00000-0  28309-5 0  9995,2 55948  70.0022 343.8400 0002953 270.1953  89.8868 14.98328207 74554,6950.198,96.107,574.116,570.011,0.0
55948.0,STARLINK-5900,PAYLOAD,2024-07-15 14:35:05,14.98326329,0.0003018,70.0019,342.6617,269.7519,90.3294,2.8273e-05,2.44e-06,0.0,0 STARLINK-5900,1 55948U 23037AL  24197.60770460  .00000244  00000-0  28273-4 0  9995,2 55948  70.0019 342.6617 0003018 269.7519  90.3294 14.98326329 74285,6950.204,96.107,574.167,569.972,0.0
55948.0,STARLINK-5900,PAYLOAD,2024-07-15 19:23:29,14.98331835,0.0003098,70.0016,342.1552,267.694,92.3864,5.0252e-05,5.07e-06,0.0,0 STARLINK-5900,1 55948U 23037AL  24197.80797985  .00000507  00000-0  50252-4 0  9992,2 55948  70.0016 342.1552 0003098 267.6940  92.3864 14.98331835 74315,6950.187,96.107,574.205,569.899,0.0
55948.0,STARLINK-5900,PAYLOAD,2024-07-16 03:24:09,14.98330816,0.0003148,70.0017,341.3122,267.9773,92.1026,1.2683e-05,5.8e-07,0.0,0 STARLINK-5900,1 55948U 23037AL  24198.14178097  .00000058  00000-0  12683-4 0  9994,2 55948  70.0017 341.3122 0003148 267.9773  92.1026 14.98330816 74702,6950.19,96.107,574.243,569.867,0.0
55948.0,STARLINK-5900,PAYLOAD,2024-07-16 14:37:06,14.98331936,0.000313,70.0013,340.1346,268.3508,91.7293,5.3724e-05,5.48e-06,0.0,0 STARLINK-5900,1 55948U 23037AL  24198.60909878  .00000548  00000-0  53724-4 0  9999,2 55948  70.0013 340.1346 0003130 268.3508  91.7293 14.98331936 74430,6950.187,96.107,574.227,569.876,0.0
55948.0,STARLINK-5900,PAYLOAD,2024-07-16 19:25:29,14.983406,0.0003119,70.0015,339.6297,266.3575,93.7227,9.097e-05,9.93e-06,0.0,0 STARLINK-5900,1 55948U 23037AL  24198.80937138  .00000993  00000-0  90970-4 0  9999,2 55948  70.0015 339.6297 0003119 266.3575  93.7227 14.98340600 74469,6950.16,96.106,574.193,569.857,0.0
55948.0,STARLINK-5900,PAYLOAD,2024-07-17 13:02:59,14.98323672,0.0002996,70.0026,337.7815,267.0548,93.0268,3.9092e-06,-4.6e-07,0.0,0 STARLINK-5900,1 55948U 23037AL  24199.54374475 -.00000046  00000-0  39092-5 0  9999,2 55948  70.0026 337.7815 0002996 267.0548  93.0268 14.98323672 74914,6950.212,96.107,574.16,569.995,0.0
55948.0,STARLINK-5900,PAYLOAD,2024-07-17 14:39:07,14.98323446,0.0002996,70.0026,337.6133,267.0555,93.0261,4.4277e-06,-4e-07,0.0,0 STARLINK-5900,1 55948U 23037AL  24199.61050510 -.00000040  00000-0  44277-5 0  9993,2 55948  70.0026 337.6133 0002996 267.0555  93.0261 14.98323446 74589,6950.213,96.107,574.16,569.996,0.0
55948.0,STARLINK-5900,PAYLOAD,2024-07-17 19:27:31,14.98334219,0.0003057,70.0016,337.1068,267.5932,92.4877,3.8329e-05,3.64e-06,0.0,0 STARLINK-5900,1 55948U 23037AL  24199.81077746  .00000364  00000-0  38329-4 0  9993,2 55948  70.0016 337.1068 0003057 267.5932  92.4877 14.98334219 74950,6950.18,96.107,574.17,569.92,0.0
55948.0,STARLINK-5900,PAYLOAD,2024-07-18 13:05:00,14.9832543,0.0002853,70.0023,335.2557,271.0346,89.0486,-4.3655e-05,-6.14e-06,0.0,0 STARLINK-5900,1 55948U 23037AL  24200.54514646 -.00000614  00000-0 -43655-4 0  9999,2 55948  70.0023 335.2557 0002853 271.0346  89.0486 14.98325430 75068,6950.207,96.107,574.055,570.089,0.0
55948.0,STARLINK-5900,PAYLOAD,2024-07-18 19:29:32,14.98328317,0.000277,70.0027,334.5835,267.5768,92.5074,-1.064e-05,-2.2e-06,0.0,0 STARLINK-5900,1 55948U 23037AL  24200.81218420 -.00000220  00000-0 -10640-4 0  9991,2 55948  70.0027 334.5835 0002770 267.5768  92.5074 14.98328317 74764,6950.198,96.107,573.988,570.138,0.0
55948.0,STARLINK-5900,PAYLOAD,2024-07-19 13:06:59,14.98349998,0.0002803,70.0028,332.7323,261.4095,98.6746,0.00028711,3.336e-05,0.0,0 STARLINK-5900,1 55948U 23037AL  24201.54652044  .00003336  00000-0  28711-3 0  9992,2 55948  70.0028 332.7323 0002803 261.4095  98.6746 14.98349998 75212,6950.131,96.106,573.944,570.048,0.0
55948.0,STARLINK-5900,PAYLOAD,2024-07-19 14:43:07,14.98352842,0.0002862,70.0021,332.5623,264.9302,95.1531,0.00029515,3.432e-05,0.0,0 STARLINK-5900,1 55948U 23037AL  24201.61327764  .00003432  00000-0  29515-3 0  9998,2 55948  70.0021 332.5623 0002862 264.9302  95.1531 14.98352842 74888,6950.122,96.106,573.976,569.998,0.0
55948.0,STARLINK-5900,PAYLOAD,2024-07-19 17:55:22,14.98358853,0.0002971,70.0018,332.2253,268.6509,91.431,0.0003467,4.049e-05,0.0,0 STARLINK-5900,1 55948U 23037AL  24201.74679039  .00004049  00000-0  34670-3 0  9990,2 55948  70.0018 332.2253 0002971 268.6509  91.4310 14.98358853 75244,6950.104,96.105,574.034,569.904,0.0
55948.0,STARLINK-5900,PAYLOAD,2024-07-20 01:56:03,14.98344002,0.00026,70.0027,331.386,268.2384,91.8477,0.00016428,1.868e-05,0.0,0 STARLINK-5900,1 55948U 23037AL  24202.08060152  .00001868  00000-0  16428-3 0  9995,2 55948  70.0027 331.3860 0002600 268.2384  91.8477 14.98344002 75298,6950.15,96.106,573.822,570.208,0.0
